BEIJING 1               
1 28890U 05043A   25108.11256067  .00000833  00000+0  17140-3 0  9992
2 28890  98.2337 235.5605 0015021 167.3323 192.8259 14.63101766 38463
HUANJING 1A (HJ-1A)     
1 33320U 08041A   25108.23483526  .00002721  00000+0  34405-3 0  9993
2 33320  97.6411 106.8533 0021313  93.2429 267.1224 14.82474522895517
HUANJING 1B (HJ-1B)     
1 33321U 08041B   25108.24950791  .00001867  00000+0  23820-3 0  9997
2 33321  97.6303 111.0996 0038429 135.7142 224.7158 14.82081952895537
YAOGAN-4                
1 33446U 08061A   25107.89917062  .00002695  00000+0  34671-3 0  9997
2 33446  97.9023  40.8258 0015275  21.5692 338.6161 14.81871290882652
DEIMOS-1                
1 35681U 09041A   25108.08075766  .00001267  00000+0  19763-3 0  9996
2 35681  97.6968 280.1838 0002634 108.2294 251.9202 14.74501769844226
UK-DMC 2                
1 35683U 09041C   25108.10356983  .00002018  00000+0  30722-3 0  9997
2 35683  97.8231 250.3606 0001283 106.0458 254.0892 14.75000352843931
DMC3-FM1                
1 40715U 15032A   25108.13403070  .00001342  00000+0  16348-3 0  9996
2 40715  97.7064 343.6014 0006207  26.8118 333.3417 14.84973177526811
DMC3-FM2                
1 40716U 15032B   25108.22272524  .00001298  00000+0  15818-3 0  9996
2 40716  97.7119 344.9671 0008092  28.3871 331.7784 14.85004691526820
DMC3-FM3                
1 40717U 15032C   25108.53458493  .00001310  00000+0  15773-3 0  9997
2 40717  97.7171 346.6977 0007251  10.8834 349.2537 14.85509187526873
